#aV2009  6  3  0  0   .00000000      96 DD+AD WGS84 FIT  NGA
## 1534 259200.00000000   900.00000000 54985  .0000000000000
+   32     1  2  3  4  5  6  7  8  9 10 11 12 13 14 15 16 17
+         18 19 20 21 22 23 24 25 26 27 28 29 30 31 32  0  0
+          0  0  0  0  0  0  0  0  0  0  0  0  0  0  0  0  0
+          0  0  0  0  0  0  0  0  0  0  0  0  0  0  0  0  0
+          0  0  0  0  0  0  0  0  0  0  0  0  0  0  0  0  0
++         0  0  0  0  0  0  0  0  0  0  0  0  0  0  0  0  0
++         0  0  0  0  0  0  0  0  0  0  0  0  0  0  0  0  0
++         0  0  0  0  0  0  0  0  0  0  0  0  0  0  0  0  0
++         0  0  0  0  0  0  0  0  0  0  0  0  0  0  0  0  0
++         0  0  0  0  0  0  0  0  0  0  0  0  0  0  0  0  0
%c cc cc ccc ccc cccc cccc cccc cccc ccccc ccccc ccccc ccccc
%c cc cc ccc ccc cccc cccc cccc cccc ccccc ccccc ccccc ccccc
%f  0.0000000  0.000000000  0.00000000000  0.000000000000000
%f  0.0000000  0.000000000  0.00000000000  0.000000000000000
%i    0    0    0    0      0      0      0      0         0
%i    0    0    0    0      0      0      0      0         0
/*      NGA, ST. LOUIS,MO.                                  
/*   EPHEMERIS COMPUTED FROM  3 DAYS OF DATA                
/* CCCCCCCCCCCCCCCCCCCCCCCCCCCCCCCCCCCCCCCCCCCCCCCCCCCCCCCCC
/* CCCCCCCCCCCCCCCCCCCCCCCCCCCCCCCCCCCCCCCCCCCCCCCCCCCCCCCCC
*  2009  6  3 22  0   .00000000                                                 
P  1  17414.455604  19489.323994   4945.066034    -83.362297                    
V  1   1374.051435   6768.867253 -30864.450188       .064425                    
P  2 -16209.211622  13079.055254  16148.218149    155.448183                    
V  2 -21031.812210   -876.050322 -20699.912029       .008931                    
P  3   9096.030987 -24737.481733    302.565351    401.828097                    
V  3   3737.401326   2136.551276  31187.861285       .050852                    
P  4 -25113.138355   6329.887642   6574.129982   -118.050788                    
V  4  -8624.420122  -2491.461670 -29577.246670      -.156859                    
P  5  13666.192979  22362.111010  -4997.470383   -115.035195                    
V  5  -6132.578020  -2675.195084 -30506.740007      -.225094                    
P  6  13685.663607 -22223.531959   4937.570845    148.086415                    
V  6    886.937596   7007.545905  30329.548954       .139846                    
P  7 -21923.849777  -7561.305822  13035.210091     17.710822                    
V  7  16361.782675  -3086.002073  25565.121284      -.007300                    
P  8 -26830.560021   -241.925611    565.825716   -206.147323                    
V  8    760.210133  -1499.650005  32018.859081      -.018148                    
P  9   5523.984508  14527.432733 -22207.058808     59.283081                    
V  9 -26420.010022   2880.133031  -4744.331842       .020233                    
P 10  -3760.116498  18354.147262  18528.562332    -16.991504                    
V 10 -14312.215031 -19335.356401  16435.346131      -.005196                    
P 11  -8703.068090 -14803.514233 -20507.327979     -5.073724                    
V 11  24708.822014  -7723.571685  -4600.632628      -.014738                    
P 12  11473.955228  23501.610854  -4930.319543   -271.741851                    
V 12  -5539.415276  -3914.456111 -30995.540472       .056084                    
P 13 -11206.867178  -9313.923029  22074.384704    298.630088                    
V 13  14084.507613 -24496.884020  -3168.158020       .008466                    
P 14  17791.483699  -8459.375902 -17636.666457   -100.364341                    
V 14  -9639.700724  20497.678438 -19539.335085       .058838                    
P 15  -5880.933709  24748.011673  -7508.902376   -297.830352                    
V 15  -6677.296209   7440.560025  29729.952833      -.033955                    
P 16   7852.618469 -14401.006809  20895.811672     45.207371                    
V 16  14949.522957  21816.859998   9680.653044      -.034095                    
P 17 -17910.684454   6944.310513 -18188.520226     62.441163                    
V 17   9158.693064 -21507.212654 -17349.716352       .021016                    
P 18  19187.714829  13756.772893 -12302.943963    -51.272384                    
V 18   6260.034546  14819.407736  25482.557062       .032457                    
P 19   5860.661860 -23769.749721  -9909.521116     23.666487                    
V 19   8905.138655  -9575.897004  28304.592207      -.012139                    
P 20 -13012.739062 -22924.200118  -3550.047272     80.874522                    
V 20   5225.241563   1650.677517 -30881.068660      -.010161                    
P 21  24250.518400   6247.424061  10002.369693     10.365164                    
V 21 -12031.227786   3261.499840  27235.453591      -.021226                    
P 22  18002.574738   2366.826869 -19251.212240    198.313739                    
V 22  11802.185246  21897.086262  13543.479095      -.006217                    
P 23  -3509.765197 -19607.903361  17372.426856    390.178658                    
V 23  11475.233920 -19136.542251 -19503.280700       .000422                    
P 24  12801.860248  13408.354140  19057.612347    193.996332                    
V 24 -24013.170201   1965.998785  15104.444385       .029408                    
P 25 -15858.764050 -10497.002206  18801.141207    445.312462                    
V 25  22701.636219  -5020.480077  16842.253894       .185086                    
P 26   4666.202331  17742.337384 -19569.565819     62.850808                    
V 26 -12554.479111  20202.127353  16273.356079       .009710                    
P 27  -2787.195459  14827.878201 -21182.572242     54.457780                    
V 27 -28324.791584   3026.700533   5647.095209       .032509                    
P 28 -18284.673720  -5639.503056 -18121.741843    -25.229171                    
V 28 -11438.126183 -20881.369082  17316.805875      -.002442                    
P 29  10957.371817  11443.534892  21430.189077     26.630466                    
V 29 -12974.375390  23635.939994  -5976.787574       .037091                    
P 30  17886.238281  19106.960628   4402.552376    151.075685                    
V 30   1146.315083   6650.819304 -30850.105110       .028436                    
P 31  23868.661913  -7804.091489   9075.104706    -61.634000                    
V 31  11288.883565   1300.697694 -29098.579098      -.007583                    
P 32  -5260.804546 -23974.685748 -10068.013707    252.314064                    
V 32   8444.974728  10501.745929 -28062.507350      -.054434                    
EOF
